code,name,city,country,latitude,longitude
AAL,Aalborg,Aalborg,Denmark,57.0534,9.5057
AAR,Aarhus,Aarhus,Denmark,56.3,10.619
ABZ,Aberdeen,Aberdeen,United Kingdom,57.2019,-2.19778
ACE,Lanzarote,Lanzarote,Spain,28.9455,-13.6052
AGA,Agadir,Agadir,Morocco,30.325,-9.41307
AGP,Malaga,Malaga,Spain,36.6749,-4.49911
AHO,Alghero,Alghero,Italy,40.6321,8.29077
ALC,Alicante,Alicante,Spain,38.2822,-0.558156
AMM,Amman Jordan,Amman,Jordan,31.9497,35.9328
AMS,Amsterdam,Amsterdam,Netherlands,52.3105,4.76827
AOI,Ancona,Ancona,Italy,43.6163,13.3623
AQJ,Aqaba Jordan,Aqaba,Jordan,29.364183,35.010504
ARN,Stockholm Arlanda,Stockholm,Sweden,59.6498,17.9239
ATH,Athens,Athens,Greece,37.9364,23.9445
BCN,Barcelona,Barcelona,Spain,41.2971,2.07846
BDS,Brindisi,Brindisi,Italy,40.6576,17.947
BER,Berlin Brandenburg,Berlin,Germany,52.3667,13.5033
BFS,Belfast International,Belfast,United Kingdom,54.6575,-6.2158
BGY,Milan Bergamo,Bergamo,Italy,45.6739,9.70417
BHX,Birmingham,Birmingham,United Kingdom,52.4539,-1.74803
BIQ,Biarritz,Biarritz,France,43.4684,-1.52332
BJV,Bodrum,Bodrum,Turkey,37.2506,27.6642
BLL,Billund,Billund,Denmark,55.7403,9.15178
BLQ,Bologna,Bologna,Italy,44.5354,11.2887
BNX,Banja Luka,Banja Luka,Bosnia & Herzegovina,44.5629,17.1731
BOD,Bordeaux,Bordeaux,France,44.8283,-0.715556
BOH,Bournemouth,Bournemouth,United Kingdom,50.78,-1.8425
BOJ,Burgas,Burgas,Bulgaria,42.3413,27.3055
BRE,Bremen,Bremen,Germany,53.0475,8.78667
BRI,Bari,Bari,Italy,41.1389,16.7606
BRQ,Brno,Brno,Czech Republic,49.1513,16.6944
BRS,Bristol,Bristol,United Kingdom,51.3827,-2.71909
BRU,Brussels,Brussels,Belgium,50.9014,4.48444
BSL,Basel,Basel,Switzerland,47.5896,7.52991
BTS,Bratislava,Bratislava,Slovakia,48.1702,17.2127
BUD,Budapest,Budapest,Hungary,47.4369,19.2556
BVA,Paris Beauvais,Paris,France,49.4544,2.11278
BVE,Brive,Brive,France,45.1508,1.46917
BZG,Bydgoszcz,Bydgoszcz,Poland,53.0968,17.9777
BZR,Beziers Cap d'Agde,Beziers,France,43.3235,3.3539
CAG,Cagliari,Cagliari,Italy,39.2515,9.05428
CCF,Carcassonne,Carcassonne,France,43.216,2.30632
CDT,Castellon (Valencia),Castellon,Spain,39.999,0.026
CFE,Clermont,Clermont Ferrand,France,45.7867,3.16917
CFU,Corfu,Corfu,Greece,39.6019,19.9117
CGN,Cologne,Cologne,Germany,50.8659,7.14274
CHQ,Chania,Chania,Greece,35.5317,24.1497
CIA,Rome Ciampino,Rome,Italy,41.7994,12.5949
CLJ,Cluj,Cluj,Romania,46.785,23.6861
CPH,Copenhagen,Copenhagen,Denmark,55.6181,12.6561
CRL,Brussels Charleroi,Charleroi,Belgium,50.4592,4.45382
CRV,Crotone,Crotone,Italy,38.99722,17.08028
CTA,Catania,Catania,Italy,37.4668,15.0664
CUF,Cuneo,Cuneo,Italy,44.547,7.62322
CWL,Cardiff,Cardiff,United Kingdom,51.3967,-3.34333
DBV,Dubrovnik,Dubrovnik,Croatia,42.5614,18.2683
DLE,Dole,Dole,France,47.039,5.42725
DLM,Dalaman,Dalaman,Turkey,36.7147,28.7928
DRS,Dresden,Dresden,Germany,51.1344,13.7681
DTM,Dortmund,Dortmund,Germany,51.5183,7.61224
DUB,Dublin,Dublin,Ireland,53.4213,-6.27007
EDI,Edinburgh,Edinburgh,United Kingdom,55.95,-3.3725
EFL,Kefalonia,Kefalonia,Greece,38.1201,20.5005
EGC,Bergerac,Bergerac,France,44.8253,0.518611
EIN,Eindhoven,Eindhoven,Netherlands,51.4501,5.37453
EMA,East Midlands,East Midlands,United Kingdom,52.8311,-1.32806
ESU,Essaouira,Essaouira,Morocco,31.3918,-9.6757
EXT,Exeter,Exeter,United Kingdom,50.7344,-3.4139
FAO,Faro,Faro,Portugal,37.0144,-7.96591
FCO,Rome Fiumicino,Rome,Italy,41.8045,12.2508
FEZ,Fez,Fez,Morocco,33.9273,-4.97796
FKB,Karlsruhe / Baden-Baden,Karlsruhe,Germany,48.7794,8.0805
FMM,Memmingen,Memmingen,Germany,47.9888,10.2395
FMO,Münster,Münster,Germany,52.1346,7.68483
FNC,Madeira Funchal,Funchal,Portugal,32.6942,-16.7781
FNI,Nimes,Nimes,France,43.7574,4.41635
FRL,Bologna Forli,Bologna,Italy,44.1948,12.0701
FSC,Figari-Corsica,Figari,France,41.5006,9.09778
FUE,Fuerteventura,Fuerteventura,Spain,28.4527,-13.8638
GDN,Gdansk,Gdansk,Poland,54.3776,18.4662
GLA,Glasgow,Glasgow,United Kingdom,55.87194,-4.43306
GNB,Grenoble,Grenoble,France,45.3629,5.32937
GOA,Genoa,Genoa,Italy,44.4133,8.8375
GOT,Göteborg Landvetter,Gothenburg,Sweden,57.6741,12.2925
GRO,Barcelona Girona,Girona,Spain,41.901,2.76055
HAM,Hamburg,Hamburg,Germany,53.63028,9.99111
HEL,Helsinki,Helsinki,Finland,60.3172,24.9633
HER,Heraklion Crete,Heraklion,Greece,35.3397,25.1803
HHN,Frankfurt Hahn,Frankfurt,Germany,49.9487,7.26389
IAS,Iasi,IASI,Romania,47.17889,27.617
IBZ,Ibiza,Ibiza,Spain,38.8729,1.37312
INI,Nis,Nis,Serbia,43.3372,21.8536
JMK,Mykonos,Mykonos,Greece,37.4351,25.3481
JSI,Skiathos,Skiathos,Greece,39.1775,23.5036
JTR,Santorini,Santorini,Greece,36.3992,25.4793
KGS,Kos,Kos,Greece,36.7933,27.0917
KIR,Kerry,Kerry,Ireland,52.1809,-9.52378
KLU,Klagenfurt,Klagenfurt,Austria,46.6425,14.3377
KLX,Kalamata,Kalamata,Greece,37.0683,22.0255
KRK,Krakow,Krakow,Poland,50.0777,19.7848
KSC,Kosice,Kosice,Slovakia,48.6631,21.2411
KTW,Katowice,Katowice,Poland,50.4743,19.08
KUN,Kaunas,Kaunas,Lithuania,54.9639,24.0848
LBA,Leeds Bradford,Leeds,United Kingdom,53.8659,-1.66057
LCA,Larnaca,Larnaca,Cyprus,34.8751,33.6249
LCJ,Lodz,Lodz,Poland,51.7219,19.3981
LDE,Lourdes–Pyrenees,Lourdes,France,43.1787,-0.006439
LDY,Derry,Derry,United Kingdom,55.0428,-7.16111
LEI,Almeria,Almeria,Spain,36.8439,-2.3701
LEJ,Leipzig,Leipzig,Germany,51.4324,12.2416
LGW,London Gatwick,London,United Kingdom,51.1481,-0.190278
LIG,Limoges,Limoges,France,45.8628,1.17944
LIL,Lille,Lille,France,50.5619,3.08944
LIS,Lisbon,Lisbon,Portugal,38.7813,-9.13592
LLA,Lulea,Luleå,Sweden,65.5425,22.1219
LPA,Gran Canaria,Gran Canaria,Spain,27.9319,-15.3866
LPL,Liverpool,Liverpool,United Kingdom,53.3336,-2.84972
LPP,Lappeenranta,Lappeenranta,Finland,61.0446,28.1444
LRH,La Rochelle,La Rochelle,France,46.1792,-1.19528
LTN,London Luton,London,United Kingdom,51.8747,-0.368333
LUX,Luxembourg,Luxembourg,Luxembourg,49.6233,6.2044
LUZ,Lublin,Lublin,Poland,51.2319,22.6903
MAD,Madrid,Madrid,Spain,40.4936,-3.56676
MAH,Menorca,Menorca,Spain,39.8626,4.21865
MAN,Manchester,Manchester,United Kingdom,53.3537,-2.27495
MLA,Malta,Malta,Malta,35.8575,14.4775
MME,Teesside,Newcastle,United Kingdom,54.5092,-1.42941
MMX,Malmo,Malmo,Sweden,55.5363,13.3762
MRS,Marseille,Marseille,France,43.4393,5.22142
MST,Maastricht,Maastricht,Netherlands,50.9117,5.77014
MXP,Milan Malpensa,Milan,Italy,45.63,8.7231
NAP,Naples,Naples,Italy,40.5304,14.1727
NCE,Nice,Nice,France,43.6584,7.21587
NCL,Newcastle,Newcastle,United Kingdom,55.0375,-1.69167
NDR,Nador,Nador,Morocco,34.9888,-3.02821
NOC,Knock,Knock,Ireland,53.9103,-8.81849
NQY,Newquay Cornwall,Newquay,United Kingdom,50.4406,-4.99541
NRN,Dusseldorf Weeze,Dusseldorf,Germany,51.6024,6.14217
NTE,Nantes,Nantes,France,47.1532,-1.61073
NUE,Nuremberg,Nuremberg,Germany,49.4987,11.0669
OPO,Porto,Porto,Portugal,41.2481,-8.68139
ORB,Orebro,Örebro,Sweden,59.2275,15.0462
ORK,Cork,Cork,Ireland,51.8413,-8.49111
OSI,Osijek,Osijek,Croatia,45.4627,18.8102
OSL,Oslo,Oslo,Norway,60.2028,11.0839
OSR,Ostrava,Ostrava,Czech Republic,49.6963,18.1111
OTP,Bucharest,Bucharest,Romania,44.5722,26.1022
OUD,Oujda,Oujda,Morocco,34.7872,-1.92399
OVD,Asturias,Oviedo,Spain,43.5636,-6.03462
OZZ,Ouarzazate,Ouarzazate,Morocco,30.9392,-6.9094
PAD,Paderborn,Paderborn,Germany,51.3655,8.3702
PDL,Ponta Delgada,Ponta Delgada,Portugal,37.74194,-25.69778
PDV,Plovdiv,Plovdiv,Bulgaria,42.0678,24.8508
PED,Pardubice,Pardubice,Czech Republic,50.0048,15.4419
PEG,Perugia,Perugia,Italy,43.0959,12.5132
PFO,Paphos,Paphos,Cyprus,34.718,32.4857
PGF,Perpignan,Perpignan,France,42.7404,2.87067
PIK,Glasgow Prestwick,Glasgow,United Kingdom,55.5094,-4.58667
PIS,Poitiers,Poitiers,France,46.5877,0.306666
PLQ,Palanga,Palanga,Lithuania,55.9733,21.0939
PMF,Parma,Parma,Italy,44.8245,10.2964
PMI,Palma de Mallorca,Palma,Spain,39.5517,2.73881
PMO,Palermo,Palermo,Italy,38.176,13.091
POZ,Poznan,Poznan,Poland,52.421,16.8263
PRG,Prague,Prague,Czech Republic,50.1008,14.26
PSA,Pisa,Pisa,Italy,43.6839,10.3927
PSR,Pescara,Pescara,Italy,42.4317,14.1811
PUY,Pula,Pula,Croatia,44.8935,13.9222
PVK,Preveza - Aktion,Preveza,Greece,38.9256,20.7653
RAK,Marrakesh,Marrakesh,Morocco,31.6069,-8.0363
RBA,Rabat,Rabat,Morocco,34.0515,-6.75152
RDZ,Rodez,Rodez,France,44.4079,2.48267
REU,Barcelona Reus,Reus,Spain,41.1474,1.16717
RHO,Rhodes,Rhodes,Greece,36.4054,28.0862
RIX,Riga,Riga,Latvia,56.9236,23.9711
RJK,Rijeka,Rijeka,Croatia,45.2169,14.5703
RMI,Rimini,Rimini,Italy,44.0203,12.6117
RMU,Murcia International,Murcia,Spain,37.7903,-1.1418
RVN,Lapland Rovaniemi,Rovaniemi,Finland,66.5631,25.8301
RZE,Rzeszow,Rzeszow,Poland,50.11,22.019
SCQ,Santiago,Santiago,Spain,42.8963,-8.41514
SDR,Santander,Santander,Spain,43.4271,-3.82001
SFT,Skelleftea,Skelleftea,Sweden,64.6248,21.0769
SKG,Thessaloniki,Thessaloniki,Greece,40.5197,22.9709
SNN,Shannon,Shannon,Ireland,52.702,-8.92482
SOF,Sofia,Sofia,Bulgaria,42.67,23.35
SPU,Split,Split,Croatia,43.5389,16.2981
STN,London Stansted,London,United Kingdom,51.885,0.235
SUF,Lamezia,Lamezia,Italy,38.9054,16.2423
SVQ,Seville,Seville,Spain,37.418,-5.89311
SXB,Strasbourg,Strasbourg,France,48.5383,7.62823
SZG,Salzburg,Salzburg,Austria,47.7933,13.0043
SZY,Olsztyn - Mazury,Olsztyn,Poland,53.4819,20.9378
SZZ,Szczecin,Szczecin,Poland,53.5847,14.9022
TER,Terceira Lajes,Terceira,Portugal,38.761944,-27.090833
TFN,Tenerife North,Tenerife,Spain,28.4827,-16.3415
TFS,Tenerife South,Tenerife,Spain,28.0445,-16.5725
TGD,Podgorica,Podgorica,Montenegro,42.3594,19.2519
TIA,Tirana,Tirana,Albania,41.4147,19.7206
TLL,Tallinn,Tallinn,Estonia,59.4133,24.8328
TLS,Toulouse,Toulouse,France,43.6044,1.4439
TLV,Tel Aviv,Tel Aviv,Israel,32.0034,34.5258
TMP,Tampere,Tampere,Finland,61.4141,23.6044
TNG,Tangier,Tangier,Morocco,35.7269,-5.91689
TPS,Trapani-Marsala,Trapani,Italy,37.9114,12.488
TRF,Oslo Torp,Sandefjord,Norway,59.1867,10.2586
TRN,Turin,Turin,Italy,45.2008,7.64963
TRS,Trieste,Trieste,Italy,45.8275,13.4722
TSF,Venice Treviso,Venice,Italy,45.6484,12.1944
TTU,Tétouan,Tétouan,Morocco,35.5944,-5.32
TUF,Tours Loire Valley,Tours,France,47.4322,0.727606
VAR,Varna,Varna,Bulgaria,43.1355,27.4931
VBY,Visby Gotland,Visby,Sweden,57.6596,18.3424
VCE,Venice M.Polo,Venice,Italy,45.5053,12.3519
VGO,Vigo,Vigo,Spain,42.23,-8.63
VIE,Vienna,Vienna,Austria,48.0639,16.3415
VIT,Vitoria (Basque Country),Vitoria-Gasteiz,Spain,42.8828,-2.7244
VLC,Valencia,Valencia,Spain,39.4893,-0.481625
VLL,Valladolid,Valladolid,Spain,41.7061,-4.85194
VNO,Vilnius,Vilnius,Lithuania,54.6341,25.2858
VRN,Verona,Verona,Italy,45.3957,10.8885
VST,Stockholm Västerås,Stockholm,Sweden,59.5894,16.6336
VXO,Växjö Småland,Växjö,Sweden,56.9291,14.728
WAW,Warsaw Chopin,Warsaw,Poland,52.1657,20.9671
WMI,Warsaw Modlin,Warsaw,Poland,52.4511,20.6517
WRO,Wroclaw,Wroclaw,Poland,51.1027,16.8858
XCR,Paris Vatry,Paris,France,48.7761,4.18449
XRY,Jerez,Jerez,Spain,36.7446,-6.06011
ZAD,Zadar,Zadar,Croatia,44.1083,15.3467
ZAG,Zagreb,Zagreb,Croatia,45.7431,16.0689
ZAZ,Zaragoza,Zaragoza,Spain,41.6662,-1.04155
ZTH,Zakynthos,Zakynthos,Greece,37.7509,20.8843
